[{"OBJECT_NAME":"STARLINK-37116","OBJECT_ID":"2026-053G","EPOCH":"2026-04-06T04:50:34.060704","MEAN_MOTION":15.80826103,"ECCENTRICITY":0.00016692,"INCLINATION":97.2853,"RA_OF_ASC_NODE":331.8806,"ARG_OF_PERICENTER":86.3054,"MEAN_ANOMALY":273.8405,"EPHEMERIS_TYPE":0,"CLASSIFICATION_TYPE":"U","NORAD_CAT_ID":68213,"ELEMENT_SET_NO":999,"REV_AT_EPOCH":440,"BSTAR":0.00061802149,"MEAN_MOTION_DOT":0.00119936,"MEAN_MOTION_DDOT":0},{"OBJECT_NAME":"STARLINK-35854","OBJECT_ID":"2026-053H","EPOCH":"2026-04-06T04:49:30.168768","MEAN_MOTION":15.80746043,"ECCENTRICITY":0.00010986,"INCLINATION":97.2852,"RA_OF_ASC_NODE":331.8819,"ARG_OF_PERICENTER":112.1573,"MEAN_ANOMALY":247.9812,"EPHEMERIS_TYPE":0,"CLASSIFICATION_TYPE":"U","NORAD_CAT_ID":68214,"ELEMENT_SET_NO":999,"REV_AT_EPOCH":438,"BSTAR":0.0002161517,"MEAN_MOTION_DOT":0.00041324,"MEAN_MOTION_DDOT":0},{"OBJECT_NAME":"STARLINK-36272","OBJECT_ID":"2026-053J","EPOCH":"2026-04-06T06:00:02.000160","MEAN_MOTION":15.62998854,"ECCENTRICITY":0.00020244,"INCLINATION":97.2841,"RA_OF_ASC_NODE":331.8764,"ARG_OF_PERICENTER":96.4603,"MEAN_ANOMALY":50.1972,"EPHEMERIS_TYPE":0,"CLASSIFICATION_TYPE":"U","NORAD_CAT_ID":68215,"ELEMENT_SET_NO":999,"REV_AT_EPOCH":433,"BSTAR":-0.025084278,"MEAN_MOTION_DOT":-0.0199814,"MEAN_MOTION_DDOT":0},{"OBJECT_NAME":"STARLINK-37014","OBJECT_ID":"2026-053K","EPOCH":"2026-04-06T04:47:19.195008","MEAN_MOTION":15.80829706,"ECCENTRICITY":0.00016705,"INCLINATION":97.2852,"RA_OF_ASC_NODE":331.8837,"ARG_OF_PERICENTER":122.8057,"MEAN_ANOMALY":237.3372,"EPHEMERIS_TYPE":0,"CLASSIFICATION_TYPE":"U","NORAD_CAT_ID":68216,"ELEMENT_SET_NO":999,"REV_AT_EPOCH":440,"BSTAR":0.00054684367,"MEAN_MOTION_DOT":0.00105954,"MEAN_MOTION_DDOT":0},{"OBJECT_NAME":"STARLINK-37011","OBJECT_ID":"2026-053L","EPOCH":"2026-04-06T04:46:14.376000","MEAN_MOTION":15.80842122,"ECCENTRICITY":0.00016417,"INCLINATION":97.285,"RA_OF_ASC_NODE":331.8848,"ARG_OF_PERICENTER":50.9201,"MEAN_ANOMALY":309.2213,"EPHEMERIS_TYPE":0,"CLASSIFICATION_TYPE":"U","NORAD_CAT_ID":68217,"ELEMENT_SET_NO":999,"REV_AT_EPOCH":440,"BSTAR":0.00084590435,"MEAN_MOTION_DOT":0.00165192,"MEAN_MOTION_DDOT":0},{"OBJECT_NAME":"STARLINK-37108","OBJECT_ID":"2026-053M","EPOCH":"2026-04-06T04:45:09.275328","MEAN_MOTION":15.80817462,"ECCENTRICITY":9.75e-5,"INCLINATION":97.2851,"RA_OF_ASC_NODE":331.8857,"ARG_OF_PERICENTER":60.508,"MEAN_ANOMALY":299.6286,"EPHEMERIS_TYPE":0,"CLASSIFICATION_TYPE":"U","NORAD_CAT_ID":68218,"ELEMENT_SET_NO":999,"REV_AT_EPOCH":440,"BSTAR":0.00041174952,"MEAN_MOTION_DOT":0.00079453,"MEAN_MOTION_DDOT":0},{"OBJECT_NAME":"STARLINK-37106","OBJECT_ID":"2026-053N","EPOCH":"2026-04-06T06:15:13.572864","MEAN_MOTION":15.80871536,"ECCENTRICITY":0.00013691,"INCLINATION":97.2849,"RA_OF_ASC_NODE":331.9538,"ARG_OF_PERICENTER":82.8151,"MEAN_ANOMALY":277.3273,"EPHEMERIS_TYPE":0,"CLASSIFICATION_TYPE":"U","NORAD_CAT_ID":68219,"ELEMENT_SET_NO":999,"REV_AT_EPOCH":441,"BSTAR":0.0010834589,"MEAN_MOTION_DOT":0.00213079,"MEAN_MOTION_DDOT":0},{"OBJECT_NAME":"STARLINK-37030","OBJECT_ID":"2026-053P","EPOCH":"2026-04-06T06:00:02.000160","MEAN_MOTION":15.74943164,"ECCENTRICITY":0.00017623,"INCLINATION":97.2854,"RA_OF_ASC_NODE":331.9401,"ARG_OF_PERICENTER":103.4899,"MEAN_ANOMALY":190.1633,"EPHEMERIS_TYPE":0,"CLASSIFICATION_TYPE":"U","NORAD_CAT_ID":68220,"ELEMENT_SET_NO":999,"REV_AT_EPOCH":444,"BSTAR":-0.015409149,"MEAN_MOTION_DOT":-0.0197002,"MEAN_MOTION_DDOT":0},{"OBJECT_NAME":"STARLINK-37012","OBJECT_ID":"2026-053Q","EPOCH":"2026-04-06T04:42:59.416128","MEAN_MOTION":15.80850809,"ECCENTRICITY":0.00016244,"INCLINATION":97.2849,"RA_OF_ASC_NODE":331.8876,"ARG_OF_PERICENTER":88.5707,"MEAN_ANOMALY":271.5747,"EPHEMERIS_TYPE":0,"CLASSIFICATION_TYPE":"U","NORAD_CAT_ID":68221,"ELEMENT_SET_NO":999,"REV_AT_EPOCH":440,"BSTAR":0.00075758592,"MEAN_MOTION_DOT":0.0014769,"MEAN_MOTION_DDOT":0},{"OBJECT_NAME":"STARLINK-37110","OBJECT_ID":"2026-053R","EPOCH":"2026-04-06T06:11:58.975872","MEAN_MOTION":15.80872794,"ECCENTRICITY":0.00017558,"INCLINATION":97.2845,"RA_OF_ASC_NODE":331.9568,"ARG_OF_PERICENTER":77.0869,"MEAN_ANOMALY":283.0596,"EPHEMERIS_TYPE":0,"CLASSIFICATION_TYPE":"U","NORAD_CAT_ID":68222,"ELEMENT_SET_NO":999,"REV_AT_EPOCH":441,"BSTAR":0.0010781764,"MEAN_MOTION_DOT":0.00212029,"MEAN_MOTION_DDOT":0},{"OBJECT_NAME":"STARLINK-37025","OBJECT_ID":"2026-053S","EPOCH":"2026-04-06T04:39:44.576352","MEAN_MOTION":15.80841592,"ECCENTRICITY":0.00012319,"INCLINATION":97.2848,"RA_OF_ASC_NODE":331.8896,"ARG_OF_PERICENTER":93.4591,"MEAN_ANOMALY":266.6818,"EPHEMERIS_TYPE":0,"CLASSIFICATION_TYPE":"U","NORAD_CAT_ID":68223,"ELEMENT_SET_NO":999,"REV_AT_EPOCH":440,"BSTAR":0.00068920342,"MEAN_MOTION_DOT":0.00134076,"MEAN_MOTION_DDOT":0},{"OBJECT_NAME":"STARLINK-36977","OBJECT_ID":"2026-053T","EPOCH":"2026-04-06T06:00:02.000160","MEAN_MOTION":15.79584027,"ECCENTRICITY":0.00013398,"INCLINATION":97.2859,"RA_OF_ASC_NODE":331.9465,"ARG_OF_PERICENTER":93.1242,"MEAN_ANOMALY":216.519,"EPHEMERIS_TYPE":0,"CLASSIFICATION_TYPE":"U","NORAD_CAT_ID":68224,"ELEMENT_SET_NO":999,"REV_AT_EPOCH":433,"BSTAR":-1.3633285e-5,"MEAN_MOTION_DOT":-2.608e-5,"MEAN_MOTION_DDOT":0},{"OBJECT_NAME":"STARLINK-36960","OBJECT_ID":"2026-053U","EPOCH":"2026-04-06T04:37:34.897728","MEAN_MOTION":15.80852846,"ECCENTRICITY":0.00018652,"INCLINATION":97.2847,"RA_OF_ASC_NODE":331.8914,"ARG_OF_PERICENTER":79.7524,"MEAN_ANOMALY":280.3954,"EPHEMERIS_TYPE":0,"CLASSIFICATION_TYPE":"U","NORAD_CAT_ID":68225,"ELEMENT_SET_NO":999,"REV_AT_EPOCH":438,"BSTAR":0.0007210707,"MEAN_MOTION_DOT":0.00140463,"MEAN_MOTION_DDOT":0},{"OBJECT_NAME":"STARLINK-37038","OBJECT_ID":"2026-053V","EPOCH":"2026-04-06T04:35:24.995328","MEAN_MOTION":15.80840832,"ECCENTRICITY":0.00017061,"INCLINATION":97.2844,"RA_OF_ASC_NODE":331.893,"ARG_OF_PERICENTER":97.2725,"MEAN_ANOMALY":262.8737,"EPHEMERIS_TYPE":0,"CLASSIFICATION_TYPE":"U","NORAD_CAT_ID":68226,"ELEMENT_SET_NO":999,"REV_AT_EPOCH":438,"BSTAR":0.00069337106,"MEAN_MOTION_DOT":0.001349,"MEAN_MOTION_DDOT":0},{"OBJECT_NAME":"STARLINK-37083","OBJECT_ID":"2026-053W","EPOCH":"2026-04-06T04:36:29.787552","MEAN_MOTION":15.80835649,"ECCENTRICITY":0.00012125,"INCLINATION":97.2846,"RA_OF_ASC_NODE":331.8928,"ARG_OF_PERICENTER":115.0484,"MEAN_ANOMALY":245.091,"EPHEMERIS_TYPE":0,"CLASSIFICATION_TYPE":"U","NORAD_CAT_ID":68227,"ELEMENT_SET_NO":999,"REV_AT_EPOCH":437,"BSTAR":0.00064044868,"MEAN_MOTION_DOT":0.00124409,"MEAN_MOTION_DDOT":0},{"OBJECT_NAME":"STARLINK-37050","OBJECT_ID":"2026-053X","EPOCH":"2026-04-06T04:34:20.081280","MEAN_MOTION":15.80839879,"ECCENTRICITY":0.00013978,"INCLINATION":97.2845,"RA_OF_ASC_NODE":331.8948,"ARG_OF_PERICENTER":59.9803,"MEAN_ANOMALY":300.1604,"EPHEMERIS_TYPE":0,"CLASSIFICATION_TYPE":"U","NORAD_CAT_ID":68228,"ELEMENT_SET_NO":999,"REV_AT_EPOCH":438,"BSTAR":0.00065699964,"MEAN_MOTION_DOT":0.00127702,"MEAN_MOTION_DDOT":0}]
