STARLINK-37116          
1 68213U 26053G   26096.20178311  .00119936  00000+0  61802-3 0  9990
2 68213  97.2853 331.8806 0001669  86.3054 273.8405 15.80826103  4404
STARLINK-35854          
1 68214U 26053H   26096.20104362  .00041324  00000+0  21615-3 0  9999
2 68214  97.2852 331.8819 0001098 112.1573 247.9812 15.80746043  4383
STARLINK-36272          
1 68215U 26053J   26096.25002315 -.01998140  00000+0 -25084-1 0  9992
2 68215  97.2841 331.8764 0002024  96.4603  50.1972 15.62998854  4334
STARLINK-37014          
1 68216U 26053K   26096.19952772  .00105954  00000+0  54684-3 0  9997
2 68216  97.2852 331.8837 0001670 122.8057 237.3372 15.80829706  4401
STARLINK-37011          
1 68217U 26053L   26096.19877750  .00165192  00000+0  84590-3 0  9999
2 68217  97.2850 331.8848 0001641  50.9201 309.2213 15.80842122  4402
STARLINK-37108          
1 68218U 26053M   26096.19802402  .00079453  00000+0  41175-3 0  9998
2 68218  97.2851 331.8857 0000975  60.5080 299.6286 15.80817462  4406
STARLINK-37106          
1 68219U 26053N   26096.26057376  .00213079  00000+0  10835-2 0  9991
2 68219  97.2849 331.9538 0001369  82.8151 277.3273 15.80871536  4417
STARLINK-37030          
1 68220U 26053P   26096.25002315 -.01970020  00000+0 -15409-1 0  9995
2 68220  97.2854 331.9401 0001762 103.4899 190.1633 15.74943164  4445
STARLINK-37012          
1 68221U 26053Q   26096.19652102  .00147690  00000+0  75759-3 0  9996
2 68221  97.2849 331.8876 0001624  88.5707 271.5747 15.80850809  4409
STARLINK-37110          
1 68222U 26053R   26096.25832148  .00212029  00000+0  10782-2 0  9997
2 68222  97.2845 331.9568 0001755  77.0869 283.0596 15.80872794  4410
STARLINK-37025          
1 68223U 26053S   26096.19426593  .00134076  00000+0  68920-3 0  9997
2 68223  97.2848 331.8896 0001231  93.4591 266.6818 15.80841592  4405
STARLINK-36977          
1 68224U 26053T   26096.25002315 -.00002608  00000+0 -13633-4 0  9996
2 68224  97.2859 331.9465 0001339  93.1242 216.5190 15.79584027  4334
STARLINK-36960          
1 68225U 26053U   26096.19276502  .00140463  00000+0  72107-3 0  9991
2 68225  97.2847 331.8914 0001865  79.7524 280.3954 15.80852846  4388
STARLINK-37038          
1 68226U 26053V   26096.19126152  .00134900  00000+0  69337-3 0  9997
2 68226  97.2844 331.8930 0001706  97.2725 262.8737 15.80840832  4382
STARLINK-37083          
1 68227U 26053W   26096.19201143  .00124409  00000+0  64045-3 0  9996
2 68227  97.2846 331.8928 0001212 115.0484 245.0910 15.80835649  4370
STARLINK-37050          
1 68228U 26053X   26096.19051020  .00127702  00000+0  65700-3 0  9992
2 68228  97.2845 331.8948 0001397  59.9803 300.1604 15.80839879  4380
